[
    {
        "Altitude(m)": 604234.6105159026,
        "Argument of Periapsis(deg)": 0.0,
        "Eccentricity": 0.0,
        "Inclination(deg)": 60.0,
        "Latitude(deg)": 14.117243098723348,
        "Longitude(deg)": 176.7273555170763,
        "Mean Anomaly(deg)": 163.63639999999998,
        "RAAN(deg)": 105.0,
        "Satellite Name": "Test1 472",
        "Satellite Number": 472,
        "Semi-Major Axis(m)": 6980739.136638005,
        "Time(s)": 0
    },
    {
        "Altitude(m)": 604223.4389437917,
        "Argument of Periapsis(deg)": 0.00010418945913296404,
        "Eccentricity": 0.0,
        "Inclination(deg)": 60.0,
        "Latitude(deg)": 13.582378899980618,
        "Longitude(deg)": 177.01426359188002,
        "Mean Anomaly(deg)": 164.25650614546183,
        "RAAN(deg)": 104.99957995086028,
        "Satellite Name": "Test1 472",
        "Satellite Number": 472,
        "Semi-Major Axis(m)": 6980739.136638005,
        "Time(s)": 10
    },
    {
        "Altitude(m)": 604215.2226418649,
        "Argument of Periapsis(deg)": 0.0002083789182659281,
        "Eccentricity": 0.0,
        "Inclination(deg)": 60.0,
        "Latitude(deg)": 13.04706656653865,
        "Longitude(deg)": 177.29970115743362,
        "Mean Anomaly(deg)": 164.87661229092367,
        "RAAN(deg)": 104.99915990172053,
        "Satellite Name": "Test1 472",
        "Satellite Number": 472,
        "Semi-Major Axis(m)": 6980739.136638005,
        "Time(s)": 20
    },
    {
        "Altitude(m)": 604209.9895022241,
        "Argument of Periapsis(deg)": 0.00031256837739889213,
        "Eccentricity": 0.0,
        "Inclination(deg)": 60.0,
        "Latitude(deg)": 12.51132648696166,
        "Longitude(deg)": 177.58373292707506,
        "Mean Anomaly(deg)": 165.49671843638552,
        "RAAN(deg)": 104.99873985258077,
        "Satellite Name": "Test1 472",
        "Satellite Number": 472,
        "Semi-Major Axis(m)": 6980739.136638005,
        "Time(s)": 30
    },
    {
        "Altitude(m)": 604207.7660729185,
        "Argument of Periapsis(deg)": 0.0004167578365318562,
        "Eccentricity": 0.0,
        "Inclination(deg)": 60.0,
        "Latitude(deg)": 11.975178773857637,
        "Longitude(deg)": 177.86642326876213,
        "Mean Anomaly(deg)": 166.11682458184734,
        "RAAN(deg)": 104.99831980344105,
        "Satellite Name": "Test1 472",
        "Satellite Number": 472,
        "Semi-Major Axis(m)": 6980739.136638005,
        "Time(s)": 40
    },
    {
        "Altitude(m)": 604208.5775421711,
        "Argument of Periapsis(deg)": 0.0005209472956648203,
        "Eccentricity": 0.0,
        "Inclination(deg)": 60.0,
        "Latitude(deg)": 11.438643277827522,
        "Longitude(deg)": 178.1478352367894,
        "Mean Anomaly(deg)": 166.7369307273092,
        "RAAN(deg)": 104.99789975430129,
        "Satellite Name": "Test1 472",
        "Satellite Number": 472,
        "Semi-Major Axis(m)": 6980739.136638005,
        "Time(s)": 50
    },
    {
        "Altitude(m)": 604212.4477232335,
        "Argument of Periapsis(deg)": 0.0006251367547977843,
        "Eccentricity": 0.0,
        "Inclination(deg)": 60.0,
        "Latitude(deg)": 10.901739601055162,
        "Longitude(deg)": 178.42803111568992,
        "Mean Anomaly(deg)": 167.35703687277103,
        "RAAN(deg)": 104.99747970516157,
        "Satellite Name": "Test1 472",
        "Satellite Number": 472,
        "Semi-Major Axis(m)": 6980739.136638005,
        "Time(s)": 60
    },
    {
        "Altitude(m)": 604219.3990399182,
        "Argument of Periapsis(deg)": 0.0007293262139307483,
        "Eccentricity": 0.0,
        "Inclination(deg)": 60.0,
        "Latitude(deg)": 10.36448711055954,
        "Longitude(deg)": 178.70707296347896,
        "Mean Anomaly(deg)": 167.97714301823282,
        "RAAN(deg)": 104.9970596560218,
        "Satellite Name": "Test1 472",
        "Satellite Number": 472,
        "Semi-Major Axis(m)": 6980739.136638005,
        "Time(s)": 70
    },
    {
        "Altitude(m)": 604229.4525128014,
        "Argument of Periapsis(deg)": 0.0008335156730637124,
        "Eccentricity": 0.0,
        "Inclination(deg)": 60.0,
        "Latitude(deg)": 9.826904951130413,
        "Longitude(deg)": 178.98502164139504,
        "Mean Anomaly(deg)": 168.59724916369464,
        "RAAN(deg)": 104.99663960688208,
        "Satellite Name": "Test1 472",
        "Satellite Number": 472,
        "Semi-Major Axis(m)": 6980739.136638005,
        "Time(s)": 80
    },
    {
        "Altitude(m)": 604242.6277461121,
        "Argument of Periapsis(deg)": 0.0009377051321966765,
        "Eccentricity": 0.0,
        "Inclination(deg)": 60.0,
        "Latitude(deg)": 9.28901205796038,
        "Longitude(deg)": 179.261937355914,
        "Mean Anomaly(deg)": 169.2173553091565,
        "RAAN(deg)": 104.99621955774232,
        "Satellite Name": "Test1 472",
        "Satellite Number": 472,
        "Semi-Major Axis(m)": 6980739.136638005,
        "Time(s)": 90
    },
    {
        "Altitude(m)": 604258.942915289,
        "Argument of Periapsis(deg)": 0.0010418945913296407,
        "Eccentricity": 0.0,
        "Inclination(deg)": 60.0,
        "Latitude(deg)": 8.750827168993089,
        "Longitude(deg)": 179.53788020019397,
        "Mean Anomaly(deg)": 169.83746145461828,
        "RAAN(deg)": 104.99579950860257,
        "Satellite Name": "Test1 472",
        "Satellite Number": 472,
        "Semi-Major Axis(m)": 6980739.136638005,
        "Time(s)": 100
    },
    {
        "Altitude(m)": 604278.4147552617,
        "Argument of Periapsis(deg)": 0.0011460840504626045,
        "Eccentricity": 0.0,
        "Inclination(deg)": 60.0,
        "Latitude(deg)": 8.212368837008293,
        "Longitude(deg)": 179.8129091821057,
        "Mean Anomaly(deg)": 170.45756760008015,
        "RAAN(deg)": 104.99537945946282,
        "Satellite Name": "Test1 472",
        "Satellite Number": 472,
        "Semi-Major Axis(m)": 6980739.136638005,
        "Time(s)": 110
    },
    {
        "Altitude(m)": 604301.0585493945,
        "Argument of Periapsis(deg)": 0.0012502735095955685,
        "Eccentricity": 0.0,
        "Inclination(deg)": 60.0,
        "Latitude(deg)": 7.673655441454035,
        "Longitude(deg)": -179.91291723537387,
        "Mean Anomaly(deg)": 171.077673745542,
        "RAAN(deg)": 104.99495941032309,
        "Satellite Name": "Test1 472",
        "Satellite Number": 472,
        "Semi-Major Axis(m)": 6980739.136638005,
        "Time(s)": 120
    },
    {
        "Altitude(m)": 604326.8881191661,
        "Argument of Periapsis(deg)": 0.0013544629687285324,
        "Eccentricity": 0.0,
        "Inclination(deg)": 60.0,
        "Latitude(deg)": 7.134705200046088,
        "Longitude(deg)": -179.63954059424918,
        "Mean Anomaly(deg)": 171.69777989100382,
        "RAAN(deg)": 104.99453936118334,
        "Satellite Name": "Test1 472",
        "Satellite Number": 472,
        "Semi-Major Axis(m)": 6980739.136638005,
        "Time(s)": 130
    },
    {
        "Altitude(m)": 604355.9158145676,
        "Argument of Periapsis(deg)": 0.0014586524278614966,
        "Eccentricity": 0.0,
        "Inclination(deg)": 60.0,
        "Latitude(deg)": 6.595536180152422,
        "Longitude(deg)": -179.36690341491814,
        "Mean Anomaly(deg)": 172.31788603646564,
        "RAAN(deg)": 104.99411931204361,
        "Satellite Name": "Test1 472",
        "Satellite Number": 472,
        "Semi-Major Axis(m)": 6980739.136638005,
        "Time(s)": 140
    },
    {
        "Altitude(m)": 604388.1525051967,
        "Argument of Periapsis(deg)": 0.0015628418869944607,
        "Eccentricity": 0.0,
        "Inclination(deg)": 60.0,
        "Latitude(deg)": 6.056166309973792,
        "Longitude(deg)": -179.0949486571327,
        "Mean Anomaly(deg)": 172.9379921819275,
        "RAAN(deg)": 104.99369926290386,
        "Satellite Name": "Test1 472",
        "Satellite Number": 472,
        "Semi-Major Axis(m)": 6980739.136638005,
        "Time(s)": 150
    },
    {
        "Altitude(m)": 604423.6075720836,
        "Argument of Periapsis(deg)": 0.0016670313461274247,
        "Eccentricity": 0.0,
        "Inclination(deg)": 60.0,
        "Latitude(deg)": 5.516613389537878,
        "Longitude(deg)": -178.8236191813507,
        "Mean Anomaly(deg)": 173.5580983273893,
        "RAAN(deg)": 104.99327921376413,
        "Satellite Name": "Test1 472",
        "Satellite Number": 472,
        "Semi-Major Axis(m)": 6980739.136638005,
        "Time(s)": 160
    },
    {
        "Altitude(m)": 604462.2889002586,
        "Argument of Periapsis(deg)": 0.0017712208052603888,
        "Eccentricity": 0.0,
        "Inclination(deg)": 60.0,
        "Latitude(deg)": 4.976895101525002,
        "Longitude(deg)": -178.55285872332465,
        "Mean Anomaly(deg)": 174.17820447285115,
        "RAAN(deg)": 104.99285916462438,
        "Satellite Name": "Test1 472",
        "Satellite Number": 472,
        "Semi-Major Axis(m)": 6980739.136638005,
        "Time(s)": 170
    },
    {
        "Altitude(m)": 604504.2028720338,
        "Argument of Periapsis(deg)": 0.001875410264393353,
        "Eccentricity": 0.0,
        "Inclination(deg)": 60.0,
        "Latitude(deg)": 4.437029021934884,
        "Longitude(deg)": -178.2826113561492,
        "Mean Anomaly(deg)": 174.79831061831297,
        "RAAN(deg)": 104.99243911548464,
        "Satellite Name": "Test1 472",
        "Satellite Number": 472,
        "Semi-Major Axis(m)": 6980739.136638005,
        "Time(s)": 180
    },
    {
        "Altitude(m)": 604549.3543610394,
        "Argument of Periapsis(deg)": 0.0019795997235263173,
        "Eccentricity": 0.0,
        "Inclination(deg)": 60.0,
        "Latitude(deg)": 3.897032630611585,
        "Longitude(deg)": -178.01282095261263,
        "Mean Anomaly(deg)": 175.41841676377476,
        "RAAN(deg)": 104.9920190663449,
        "Satellite Name": "Test1 472",
        "Satellite Number": 472,
        "Semi-Major Axis(m)": 6980739.136638005,
        "Time(s)": 190
    }
]